start=new Date('2022-04-27T00:00:00.000Z').valueOf();
sats=[{"MEAN_MOTION_DDOT":"0.0000000000000","EPHEMERIS_TYPE":"0","MEAN_MOTION_DOT":"0.00043943","SEMIMAJOR_AXIS":"6917.933","DECAY_DATE":null,"TIME_SYSTEM":"UTC","EPOCH":"2022-04-26T22:00:00.999936","GP_ID":"202112013","MEAN_ELEMENT_THEORY":"SGP4","TLE_LINE1":"1 50161U 21125F   22116.91667824  .00043943  00000-0  27632-2 0  9994","NORAD_CAT_ID":"50161","ARG_OF_PERICENTER":"37.1111","PERIOD":"95.439","MEAN_MOTION":"15.08822683","REV_AT_EPOCH":"357","TLE_LINE2":"2 50161  53.2163 121.3180 0002408  37.1111 211.2342 15.08822683  3572","OBJECT_NAME":"STARLINK-3304","OBJECT_TYPE":"PAYLOAD","RA_OF_ASC_NODE":"121.3180","ELEMENT_SET_NO":"999","PERIAPSIS":"538.132","COUNTRY_CODE":"US","RCS_SIZE":"LARGE","CLASSIFICATION_TYPE":"U","REF_FRAME":"TEME","SITE":"AFWTR","CENTER_NAME":"EARTH","APOAPSIS":"541.464","FILE":"3417474","BSTAR":"0.00276320000000","INCLINATION":"53.2163","OBJECT_ID":"2021-125F","LAUNCH_DATE":"2021-12-18","MEAN_ANOMALY":"211.2342","ECCENTRICITY":"0.00024080"},{"RA_OF_ASC_NODE":"78.4046","ELEMENT_SET_NO":"999","REF_FRAME":"TEME","COUNTRY_CODE":"US","PERIAPSIS":"338.866","RCS_SIZE":"LARGE","CLASSIFICATION_TYPE":"U","CENTER_NAME":"EARTH","SITE":"AFWTR","OBJECT_ID":"2021-125G","LAUNCH_DATE":"2021-12-18","ECCENTRICITY":"0.00011030","MEAN_ANOMALY":"122.5308","FILE":"3417474","APOAPSIS":"340.348","BSTAR":"-0.00043884000000","INCLINATION":"53.2114","MEAN_MOTION_DOT":"-0.00071991","MEAN_MOTION_DDOT":"0.0000000000000","EPHEMERIS_TYPE":"0","EPOCH":"2022-04-26T22:00:00.999936","SEMIMAJOR_AXIS":"6717.742","DECAY_DATE":null,"TIME_SYSTEM":"UTC","TLE_LINE1":"1 50162U 21125G   22116.91667824 -.00071991  00000-0 -43884-3 0  9999","NORAD_CAT_ID":"50162","PERIOD":"91.326","ARG_OF_PERICENTER":"86.9864","MEAN_ELEMENT_THEORY":"SGP4","GP_ID":"202112260","OBJECT_NAME":"STARLINK-3303","OBJECT_TYPE":"PAYLOAD","MEAN_MOTION":"15.76768036","REV_AT_EPOCH":"369","TLE_LINE2":"2 50162  53.2114  78.4046 0001103  86.9864 122.5308 15.76768036  3695"},{"ELEMENT_SET_NO":"999","RA_OF_ASC_NODE":"102.0441","REF_FRAME":"TEME","PERIAPSIS":"504.153","COUNTRY_CODE":"US","CLASSIFICATION_TYPE":"U","RCS_SIZE":"LARGE","CENTER_NAME":"EARTH","SITE":"AFWTR","LAUNCH_DATE":"2021-12-18","ECCENTRICITY":"0.00014590","MEAN_ANOMALY":"256.3943","OBJECT_ID":"2021-125H","INCLINATION":"53.2176","BSTAR":"-0.01411100000000","APOAPSIS":"506.162","FILE":"3417474","MEAN_MOTION_DOT":"-0.00297781","MEAN_MOTION_DDOT":"0.0000000000000","EPHEMERIS_TYPE":"0","EPOCH":"2022-04-26T22:00:00.999936","TIME_SYSTEM":"UTC","SEMIMAJOR_AXIS":"6883.293","DECAY_DATE":null,"NORAD_CAT_ID":"50163","TLE_LINE1":"1 50163U 21125H   22116.91667824 -.00297781  00000-0 -14111-1 0  9996","PERIOD":"94.723","ARG_OF_PERICENTER":"58.6637","MEAN_ELEMENT_THEORY":"SGP4","GP_ID":"202112514","OBJECT_TYPE":"PAYLOAD","OBJECT_NAME":"STARLINK-3306","TLE_LINE2":"2 50163  53.2176 102.0441 0001459  58.6637 256.3943 15.20226938  3606","MEAN_MOTION":"15.20226938","REV_AT_EPOCH":"360"},{"INCLINATION":"53.2098","BSTAR":"0.00061438000000","APOAPSIS":"342.226","FILE":"3417474","MEAN_ANOMALY":"285.0374","ECCENTRICITY":"0.00082550","LAUNCH_DATE":"2021-12-18","OBJECT_ID":"2021-125J","SITE":"AFWTR","CENTER_NAME":"EARTH","CLASSIFICATION_TYPE":"U","RCS_SIZE":"LARGE","PERIAPSIS":"331.140","COUNTRY_CODE":"US","REF_FRAME":"TEME","ELEMENT_SET_NO":"999","RA_OF_ASC_NODE":"84.2978","TLE_LINE2":"2 50164  53.2098  84.2978 0008255 279.0234 285.0374 15.77798117  3689","REV_AT_EPOCH":"368","MEAN_MOTION":"15.77798117","OBJECT_TYPE":"PAYLOAD","OBJECT_NAME":"STARLINK-3307","GP_ID":"202112766","MEAN_ELEMENT_THEORY":"SGP4","PERIOD":"91.266","ARG_OF_PERICENTER":"279.0234","TLE_LINE1":"1 50164U 21125J   22116.91667824  .00106307  00000-0  61438-3 0  9994","NORAD_CAT_ID":"50164","TIME_SYSTEM":"UTC","DECAY_DATE":null,"SEMIMAJOR_AXIS":"6714.818","EPOCH":"2022-04-26T22:00:00.999936","MEAN_MOTION_DDOT":"0.0000000000000","EPHEMERIS_TYPE":"0","MEAN_MOTION_DOT":"0.00106307"},{"PERIAPSIS":"538.135","COUNTRY_CODE":"US","RCS_SIZE":"LARGE","CLASSIFICATION_TYPE":"U","REF_FRAME":"TEME","RA_OF_ASC_NODE":"121.3085","ELEMENT_SET_NO":"999","FILE":"3417474","APOAPSIS":"541.468","INCLINATION":"53.2178","BSTAR":"0.00301950000000","OBJECT_ID":"2021-125K","LAUNCH_DATE":"2021-12-18","MEAN_ANOMALY":"291.7607","ECCENTRICITY":"0.00024090","SITE":"AFWTR","CENTER_NAME":"EARTH","SEMIMAJOR_AXIS":"6917.936","DECAY_DATE":null,"TIME_SYSTEM":"UTC","EPOCH":"2022-04-26T22:00:00.999936","MEAN_MOTION_DDOT":"0.0000000000000","EPHEMERIS_TYPE":"0","MEAN_MOTION_DOT":"0.00048072","MEAN_MOTION":"15.08821648","REV_AT_EPOCH":"357","TLE_LINE2":"2 50165  53.2178 121.3085 0002409  36.6349 291.7607 15.08821648  3571","OBJECT_NAME":"STARLINK-3298","OBJECT_TYPE":"PAYLOAD","MEAN_ELEMENT_THEORY":"SGP4","GP_ID":"202111513","NORAD_CAT_ID":"50165","TLE_LINE1":"1 50165U 21125K   22116.91667824  .00048072  00000-0  30195-2 0  9994","PERIOD":"95.439","ARG_OF_PERICENTER":"36.6349"},{"REF_FRAME":"TEME","CLASSIFICATION_TYPE":"U","RCS_SIZE":"LARGE","COUNTRY_CODE":"US","PERIAPSIS":"538.612","ELEMENT_SET_NO":"999","RA_OF_ASC_NODE":"111.2983","ECCENTRICITY":"0.00017120","MEAN_ANOMALY":"157.1470","LAUNCH_DATE":"2021-12-18","OBJECT_ID":"2021-125L","INCLINATION":"53.2153","BSTAR":"0.00142720000000","FILE":"3417474","APOAPSIS":"540.980","CENTER_NAME":"EARTH","SITE":"AFWTR","EPOCH":"2022-04-26T22:00:00.999936","TIME_SYSTEM":"UTC","DECAY_DATE":null,"SEMIMAJOR_AXIS":"6917.931","MEAN_MOTION_DOT":"0.00022489","MEAN_MOTION_DDOT":"0.0000000000000","EPHEMERIS_TYPE":"0","OBJECT_TYPE":"PAYLOAD","OBJECT_NAME":"STARLINK-3305","TLE_LINE2":"2 50166  53.2153 111.2983 0001712  46.3069 157.1470 15.08823411  3576","REV_AT_EPOCH":"357","MEAN_MOTION":"15.08823411","PERIOD":"95.439","ARG_OF_PERICENTER":"46.3069","NORAD_CAT_ID":"50166","TLE_LINE1":"1 50166U 21125L   22116.91667824  .00022489  00000-0  14272-2 0  9997","MEAN_ELEMENT_THEORY":"SGP4","GP_ID":"202111760"},{"TLE_LINE1":"1 50167U 21125M   22116.91667824  .00051900  00000-0  32569-2 0  9997","NORAD_CAT_ID":"50167","PERIOD":"95.439","ARG_OF_PERICENTER":"35.6417","MEAN_ELEMENT_THEORY":"SGP4","GP_ID":"202113015","OBJECT_TYPE":"PAYLOAD","OBJECT_NAME":"STARLINK-3271","TLE_LINE2":"2 50167  53.2160 121.2949 0002522  35.6417 332.7633 15.08819623  3578","MEAN_MOTION":"15.08819623","REV_AT_EPOCH":"357","MEAN_MOTION_DOT":"0.00051900","EPHEMERIS_TYPE":"0","MEAN_MOTION_DDOT":"0.0000000000000","EPOCH":"2022-04-26T22:00:00.999936","TIME_SYSTEM":"UTC","SEMIMAJOR_AXIS":"6917.943","DECAY_DATE":null,"CENTER_NAME":"EARTH","SITE":"AFWTR","LAUNCH_DATE":"2021-12-18","ECCENTRICITY":"0.00025220","MEAN_ANOMALY":"332.7633","OBJECT_ID":"2021-125M","INCLINATION":"53.2160","BSTAR":"0.00325690000000","FILE":"3417474","APOAPSIS":"541.552","ELEMENT_SET_NO":"999","RA_OF_ASC_NODE":"121.2949","REF_FRAME":"TEME","PERIAPSIS":"538.063","COUNTRY_CODE":"US","CLASSIFICATION_TYPE":"U","RCS_SIZE":"LARGE"},{"MEAN_ELEMENT_THEORY":"SGP4","GP_ID":"202113267","NORAD_CAT_ID":"50168","TLE_LINE1":"1 50168U 21125N   22116.91667824 -.00011047  00000-0 -67686-3 0  9997","ARG_OF_PERICENTER":"53.3090","PERIOD":"95.437","TLE_LINE2":"2 50168  53.2154 111.2986 0001931  53.3090 170.1222 15.08847898  3572","MEAN_MOTION":"15.08847898","REV_AT_EPOCH":"357","OBJECT_TYPE":"PAYLOAD","OBJECT_NAME":"STARLINK-3296","MEAN_MOTION_DDOT":"0.0000000000000","EPHEMERIS_TYPE":"0","MEAN_MOTION_DOT":"-0.00011047","TIME_SYSTEM":"UTC","SEMIMAJOR_AXIS":"6917.856","DECAY_DATE":null,"EPOCH":"2022-04-26T22:00:00.999936","SITE":"AFWTR","CENTER_NAME":"EARTH","BSTAR":"-0.00067686000000","INCLINATION":"53.2154","APOAPSIS":"541.057","FILE":"3417474","LAUNCH_DATE":"2021-12-18","MEAN_ANOMALY":"170.1222","ECCENTRICITY":"0.00019310","OBJECT_ID":"2021-125N","ELEMENT_SET_NO":"999","RA_OF_ASC_NODE":"111.2986","PERIAPSIS":"538.385","COUNTRY_CODE":"US","RCS_SIZE":"LARGE","CLASSIFICATION_TYPE":"U","REF_FRAME":"TEME"},{"OBJECT_NAME":"STARLINK-3301","OBJECT_TYPE":"PAYLOAD","REV_AT_EPOCH":"357","MEAN_MOTION":"15.08810246","TLE_LINE2":"2 50169  53.2184 111.3015 0002374  38.9347 344.5334 15.08810246  3574","ARG_OF_PERICENTER":"38.9347","PERIOD":"95.439","NORAD_CAT_ID":"50169","TLE_LINE1":"1 50169U 21125P   22116.91667824  .00046233  00000-0  29063-2 0  9997","GP_ID":"202112014","MEAN_ELEMENT_THEORY":"SGP4","EPOCH":"2022-04-26T22:00:00.999936","DECAY_DATE":null,"SEMIMAJOR_AXIS":"6917.971","TIME_SYSTEM":"UTC","MEAN_MOTION_DOT":"0.00046233","EPHEMERIS_TYPE":"0","MEAN_MOTION_DDOT":"0.0000000000000","OBJECT_ID":"2021-125P","ECCENTRICITY":"0.00023740","MEAN_ANOMALY":"344.5334","LAUNCH_DATE":"2021-12-18","APOAPSIS":"541.479","FILE":"3417474","INCLINATION":"53.2184","BSTAR":"0.00290630000000","CENTER_NAME":"EARTH","SITE":"AFWTR","REF_FRAME":"TEME","CLASSIFICATION_TYPE":"U","RCS_SIZE":"LARGE","PERIAPSIS":"538.194","COUNTRY_CODE":"US","RA_OF_ASC_NODE":"111.3015","ELEMENT_SET_NO":"999"},{"MEAN_MOTION_DOT":"-0.00006942","MEAN_MOTION_DDOT":"0.0000000000000","EPHEMERIS_TYPE":"0","EPOCH":"2022-04-26T22:00:00.999936","TIME_SYSTEM":"UTC","SEMIMAJOR_AXIS":"6917.855","DECAY_DATE":null,"TLE_LINE1":"1 50170U 21125Q   22116.91667824 -.00006942  00000-0 -41835-3 0  9996","NORAD_CAT_ID":"50170","ARG_OF_PERICENTER":"45.0350","PERIOD":"95.437","MEAN_ELEMENT_THEORY":"SGP4","GP_ID":"202112261","OBJECT_TYPE":"PAYLOAD","OBJECT_NAME":"STARLINK-3245","TLE_LINE2":"2 50170  53.2143 111.3005 0002035  45.0350 218.3885 15.08848365  3568","MEAN_MOTION":"15.08848365","REV_AT_EPOCH":"356","ELEMENT_SET_NO":"999","RA_OF_ASC_NODE":"111.3005","REF_FRAME":"TEME","PERIAPSIS":"538.312","COUNTRY_CODE":"US","CLASSIFICATION_TYPE":"U","RCS_SIZE":"LARGE","CENTER_NAME":"EARTH","SITE":"AFWTR","LAUNCH_DATE":"2021-12-18","MEAN_ANOMALY":"218.3885","ECCENTRICITY":"0.00020350","OBJECT_ID":"2021-125Q","BSTAR":"-0.00041835000000","INCLINATION":"53.2143","FILE":"3417474","APOAPSIS":"541.128"}];
